[{"OBJECT_NAME":"STARLINK-2417","OBJECT_ID":"2021-027E","EPOCH":"2026-03-09T12:54:17.115840","MEAN_MOTION":15.30191527,"ECCENTRICITY":0.00011841,"INCLINATION":53.1603,"RA_OF_ASC_NODE":166.3022,"ARG_OF_PERICENTER":76.2156,"MEAN_ANOMALY":283.8977,"EPHEMERIS_TYPE":0,"CLASSIFICATION_TYPE":"U","NORAD_CAT_ID":48096,"ELEMENT_SET_NO":999,"REV_AT_EPOCH":27248,"BSTAR":-4.46308e-5,"MEAN_MOTION_DOT":-1.68e-5,"MEAN_MOTION_DDOT":0},{"OBJECT_NAME":"GEOSCAN 5 (RS92S5)","OBJECT_ID":"2025-155R","EPOCH":"2026-03-09T22:01:07.273920","MEAN_MOTION":15.30265233,"ECCENTRICITY":0.00070849,"INCLINATION":97.4462,"RA_OF_ASC_NODE":37.7456,"ARG_OF_PERICENTER":154.5846,"MEAN_ANOMALY":205.5745,"EPHEMERIS_TYPE":0,"CLASSIFICATION_TYPE":"U","NORAD_CAT_ID":64891,"ELEMENT_SET_NO":999,"REV_AT_EPOCH":6562,"BSTAR":0.00068639307,"MEAN_MOTION_DOT":0.00020065,"MEAN_MOTION_DDOT":0}]
